<?xml version="1.0" encoding="UTF-8"?>
<gpx version="1.1" creator="Codex accommodation/nature GPX" xmlns="http://www.topografix.com/GPX/1/1">
  <metadata>
    <name>D12_BlueHouseCiginj_TolminStation</name>
    <desc>D12 short connector: The Blue House, Čiginj -&gt; Tolmin railway station | Source: OSM bike routing</desc>
  </metadata>
  <wpt lat="46.1621180" lon="13.7107930">
    <name>The Blue House</name>
    <desc>Čiginj 25, 5220 Tolmin</desc>
    <sym>Lodging</sym>
  </wpt>
  <trk>
    <name>D12_BlueHouseCiginj_TolminStation</name>
    <trkseg>
      <trkpt lat="46.1621180" lon="13.7107930"/>
      <trkpt lat="46.1621640" lon="13.7107060"/>
      <trkpt lat="46.1621690" lon="13.7106990"/>
      <trkpt lat="46.1622370" lon="13.7106280"/>
      <trkpt lat="46.1622760" lon="13.7106010"/>
      <trkpt lat="46.1628740" lon="13.7101940"/>
      <trkpt lat="46.1630150" lon="13.7100460"/>
      <trkpt lat="46.1630670" lon="13.7099910"/>
      <trkpt lat="46.1631130" lon="13.7099390"/>
      <trkpt lat="46.1631910" lon="13.7098920"/>
      <trkpt lat="46.1632460" lon="13.7098710"/>
      <trkpt lat="46.1632580" lon="13.7098670"/>
      <trkpt lat="46.1633470" lon="13.7098870"/>
      <trkpt lat="46.1636020" lon="13.7099920"/>
      <trkpt lat="46.1636600" lon="13.7100120"/>
      <trkpt lat="46.1639490" lon="13.7101110"/>
      <trkpt lat="46.1641180" lon="13.7101590"/>
      <trkpt lat="46.1643290" lon="13.7101520"/>
      <trkpt lat="46.1644840" lon="13.7101340"/>
      <trkpt lat="46.1651050" lon="13.7098640"/>
      <trkpt lat="46.1660890" lon="13.7095880"/>
      <trkpt lat="46.1667090" lon="13.7095910"/>
      <trkpt lat="46.1669650" lon="13.7095510"/>
      <trkpt lat="46.1672880" lon="13.7095000"/>
      <trkpt lat="46.1677250" lon="13.7094310"/>
      <trkpt lat="46.1689610" lon="13.7091940"/>
      <trkpt lat="46.1691650" lon="13.7091380"/>
      <trkpt lat="46.1694510" lon="13.7090610"/>
      <trkpt lat="46.1698690" lon="13.7088720"/>
      <trkpt lat="46.1711190" lon="13.7084680"/>
      <trkpt lat="46.1713550" lon="13.7083840"/>
      <trkpt lat="46.1714270" lon="13.7083390"/>
      <trkpt lat="46.1717140" lon="13.7080910"/>
      <trkpt lat="46.1718480" lon="13.7079980"/>
      <trkpt lat="46.1718760" lon="13.7078910"/>
      <trkpt lat="46.1719200" lon="13.7078560"/>
      <trkpt lat="46.1719720" lon="13.7078330"/>
      <trkpt lat="46.1720440" lon="13.7078170"/>
      <trkpt lat="46.1721030" lon="13.7078140"/>
      <trkpt lat="46.1722510" lon="13.7077960"/>
      <trkpt lat="46.1723890" lon="13.7078080"/>
      <trkpt lat="46.1725790" lon="13.7078300"/>
      <trkpt lat="46.1727100" lon="13.7078970"/>
      <trkpt lat="46.1728210" lon="13.7079450"/>
      <trkpt lat="46.1729360" lon="13.7080350"/>
      <trkpt lat="46.1730050" lon="13.7080800"/>
      <trkpt lat="46.1730920" lon="13.7080230"/>
      <trkpt lat="46.1731350" lon="13.7080020"/>
      <trkpt lat="46.1733180" lon="13.7079720"/>
      <trkpt lat="46.1734830" lon="13.7079380"/>
      <trkpt lat="46.1737700" lon="13.7078950"/>
      <trkpt lat="46.1738420" lon="13.7078830"/>
      <trkpt lat="46.1739410" lon="13.7078590"/>
      <trkpt lat="46.1740070" lon="13.7078410"/>
      <trkpt lat="46.1742180" lon="13.7077580"/>
      <trkpt lat="46.1743840" lon="13.7076950"/>
      <trkpt lat="46.1745280" lon="13.7076550"/>
      <trkpt lat="46.1745970" lon="13.7076450"/>
      <trkpt lat="46.1747550" lon="13.7076300"/>
      <trkpt lat="46.1749270" lon="13.7076450"/>
      <trkpt lat="46.1750450" lon="13.7076790"/>
      <trkpt lat="46.1750940" lon="13.7077030"/>
      <trkpt lat="46.1751370" lon="13.7077250"/>
      <trkpt lat="46.1752180" lon="13.7078010"/>
      <trkpt lat="46.1752980" lon="13.7078880"/>
      <trkpt lat="46.1755010" lon="13.7081740"/>
      <trkpt lat="46.1756940" lon="13.7083390"/>
      <trkpt lat="46.1759260" lon="13.7084540"/>
      <trkpt lat="46.1760500" lon="13.7085090"/>
      <trkpt lat="46.1761560" lon="13.7085710"/>
      <trkpt lat="46.1762470" lon="13.7086720"/>
      <trkpt lat="46.1764380" lon="13.7089830"/>
      <trkpt lat="46.1765140" lon="13.7090890"/>
      <trkpt lat="46.1765860" lon="13.7091880"/>
      <trkpt lat="46.1768210" lon="13.7094820"/>
      <trkpt lat="46.1769580" lon="13.7096580"/>
      <trkpt lat="46.1770470" lon="13.7097740"/>
      <trkpt lat="46.1770680" lon="13.7098070"/>
      <trkpt lat="46.1776900" lon="13.7104450"/>
      <trkpt lat="46.1779790" lon="13.7106600"/>
      <trkpt lat="46.1784750" lon="13.7109500"/>
      <trkpt lat="46.1790260" lon="13.7111480"/>
      <trkpt lat="46.1796940" lon="13.7113870"/>
      <trkpt lat="46.1813610" lon="13.7119860"/>
      <trkpt lat="46.1815060" lon="13.7120370"/>
      <trkpt lat="46.1826330" lon="13.7124380"/>
      <trkpt lat="46.1827180" lon="13.7125190"/>
      <trkpt lat="46.1827460" lon="13.7125540"/>
      <trkpt lat="46.1827590" lon="13.7125700"/>
      <trkpt lat="46.1827820" lon="13.7126020"/>
      <trkpt lat="46.1828000" lon="13.7126640"/>
      <trkpt lat="46.1828290" lon="13.7127150"/>
      <trkpt lat="46.1828680" lon="13.7127520"/>
      <trkpt lat="46.1829130" lon="13.7127690"/>
      <trkpt lat="46.1829580" lon="13.7128200"/>
      <trkpt lat="46.1830140" lon="13.7129130"/>
      <trkpt lat="46.1830510" lon="13.7129770"/>
      <trkpt lat="46.1830730" lon="13.7130660"/>
      <trkpt lat="46.1830940" lon="13.7131750"/>
      <trkpt lat="46.1831050" lon="13.7132490"/>
      <trkpt lat="46.1831140" lon="13.7134820"/>
      <trkpt lat="46.1830850" lon="13.7136940"/>
      <trkpt lat="46.1829650" lon="13.7140690"/>
      <trkpt lat="46.1827260" lon="13.7146910"/>
      <trkpt lat="46.1826480" lon="13.7149780"/>
      <trkpt lat="46.1826310" lon="13.7152500"/>
      <trkpt lat="46.1826570" lon="13.7155010"/>
      <trkpt lat="46.1827800" lon="13.7157980"/>
      <trkpt lat="46.1833450" lon="13.7167780"/>
      <trkpt lat="46.1834180" lon="13.7169070"/>
      <trkpt lat="46.1835120" lon="13.7171100"/>
      <trkpt lat="46.1835680" lon="13.7173020"/>
      <trkpt lat="46.1836020" lon="13.7174910"/>
      <trkpt lat="46.1836080" lon="13.7176760"/>
      <trkpt lat="46.1835980" lon="13.7178530"/>
      <trkpt lat="46.1835730" lon="13.7180230"/>
      <trkpt lat="46.1833510" lon="13.7191290"/>
      <trkpt lat="46.1830920" lon="13.7204140"/>
      <trkpt lat="46.1829330" lon="13.7212170"/>
      <trkpt lat="46.1828390" lon="13.7217160"/>
      <trkpt lat="46.1824470" lon="13.7235350"/>
      <trkpt lat="46.1823730" lon="13.7237890"/>
      <trkpt lat="46.1822590" lon="13.7240140"/>
      <trkpt lat="46.1819060" lon="13.7244510"/>
      <trkpt lat="46.1815480" lon="13.7248620"/>
      <trkpt lat="46.1814520" lon="13.7249830"/>
      <trkpt lat="46.1813640" lon="13.7251110"/>
      <trkpt lat="46.1812650" lon="13.7252160"/>
      <trkpt lat="46.1812090" lon="13.7252760"/>
      <trkpt lat="46.1811320" lon="13.7253260"/>
      <trkpt lat="46.1811040" lon="13.7253430"/>
      <trkpt lat="46.1810800" lon="13.7253680"/>
      <trkpt lat="46.1810600" lon="13.7254020"/>
      <trkpt lat="46.1810540" lon="13.7254210"/>
      <trkpt lat="46.1810460" lon="13.7254520"/>
      <trkpt lat="46.1810430" lon="13.7254850"/>
      <trkpt lat="46.1810440" lon="13.7255180"/>
      <trkpt lat="46.1810490" lon="13.7255490"/>
      <trkpt lat="46.1810530" lon="13.7256610"/>
      <trkpt lat="46.1810520" lon="13.7257960"/>
      <trkpt lat="46.1810270" lon="13.7259300"/>
      <trkpt lat="46.1810060" lon="13.7260650"/>
      <trkpt lat="46.1809920" lon="13.7261750"/>
      <trkpt lat="46.1809760" lon="13.7264470"/>
      <trkpt lat="46.1809680" lon="13.7267290"/>
      <trkpt lat="46.1809420" lon="13.7271430"/>
      <trkpt lat="46.1809980" lon="13.7271510"/>
      <trkpt lat="46.1810820" lon="13.7271780"/>
      <trkpt lat="46.1811250" lon="13.7272050"/>
      <trkpt lat="46.1811690" lon="13.7272400"/>
      <trkpt lat="46.1812250" lon="13.7273150"/>
      <trkpt lat="46.1812570" lon="13.7274030"/>
      <trkpt lat="46.1812850" lon="13.7275280"/>
      <trkpt lat="46.1813490" lon="13.7278000"/>
      <trkpt lat="46.1813830" lon="13.7280420"/>
      <trkpt lat="46.1813710" lon="13.7280980"/>
      <trkpt lat="46.1813580" lon="13.7281360"/>
      <trkpt lat="46.1813530" lon="13.7281770"/>
      <trkpt lat="46.1813580" lon="13.7282190"/>
      <trkpt lat="46.1813720" lon="13.7282600"/>
      <trkpt lat="46.1813950" lon="13.7282930"/>
      <trkpt lat="46.1814250" lon="13.7283120"/>
      <trkpt lat="46.1814550" lon="13.7283390"/>
      <trkpt lat="46.1814940" lon="13.7284360"/>
      <trkpt lat="46.1815610" lon="13.7286040"/>
      <trkpt lat="46.1817660" lon="13.7294190"/>
      <trkpt lat="46.1818460" lon="13.7296610"/>
      <trkpt lat="46.1819030" lon="13.7297780"/>
      <trkpt lat="46.1820400" lon="13.7299390"/>
      <trkpt lat="46.1821140" lon="13.7300090"/>
      <trkpt lat="46.1821410" lon="13.7300350"/>
      <trkpt lat="46.1821910" lon="13.7300840"/>
      <trkpt lat="46.1822450" lon="13.7301230"/>
      <trkpt lat="46.1822860" lon="13.7301450"/>
      <trkpt lat="46.1823310" lon="13.7301600"/>
      <trkpt lat="46.1823750" lon="13.7301610"/>
      <trkpt lat="46.1824200" lon="13.7301590"/>
      <trkpt lat="46.1824790" lon="13.7301370"/>
      <trkpt lat="46.1825370" lon="13.7301090"/>
      <trkpt lat="46.1826530" lon="13.7300380"/>
      <trkpt lat="46.1827020" lon="13.7300110"/>
      <trkpt lat="46.1827270" lon="13.7299980"/>
      <trkpt lat="46.1827520" lon="13.7299910"/>
      <trkpt lat="46.1827760" lon="13.7299940"/>
      <trkpt lat="46.1827970" lon="13.7300050"/>
      <trkpt lat="46.1828160" lon="13.7300210"/>
      <trkpt lat="46.1828340" lon="13.7300420"/>
      <trkpt lat="46.1828480" lon="13.7300660"/>
      <trkpt lat="46.1828590" lon="13.7300940"/>
      <trkpt lat="46.1828670" lon="13.7301220"/>
      <trkpt lat="46.1828730" lon="13.7301530"/>
      <trkpt lat="46.1828740" lon="13.7301830"/>
      <trkpt lat="46.1828700" lon="13.7302120"/>
      <trkpt lat="46.1828650" lon="13.7302400"/>
      <trkpt lat="46.1828570" lon="13.7302670"/>
      <trkpt lat="46.1828410" lon="13.7302940"/>
      <trkpt lat="46.1828230" lon="13.7303140"/>
      <trkpt lat="46.1828030" lon="13.7303330"/>
      <trkpt lat="46.1827830" lon="13.7303480"/>
      <trkpt lat="46.1827440" lon="13.7303650"/>
      <trkpt lat="46.1827030" lon="13.7303740"/>
      <trkpt lat="46.1826190" lon="13.7303840"/>
      <trkpt lat="46.1825180" lon="13.7303960"/>
      <trkpt lat="46.1824680" lon="13.7304030"/>
      <trkpt lat="46.1824170" lon="13.7304150"/>
      <trkpt lat="46.1823900" lon="13.7304300"/>
      <trkpt lat="46.1823640" lon="13.7304490"/>
      <trkpt lat="46.1823380" lon="13.7304690"/>
      <trkpt lat="46.1823120" lon="13.7304930"/>
      <trkpt lat="46.1822720" lon="13.7305710"/>
      <trkpt lat="46.1822430" lon="13.7306600"/>
      <trkpt lat="46.1822240" lon="13.7307660"/>
      <trkpt lat="46.1822170" lon="13.7308190"/>
      <trkpt lat="46.1822090" lon="13.7308740"/>
      <trkpt lat="46.1822050" lon="13.7309310"/>
      <trkpt lat="46.1822030" lon="13.7309900"/>
      <trkpt lat="46.1822120" lon="13.7311030"/>
      <trkpt lat="46.1822350" lon="13.7311880"/>
      <trkpt lat="46.1822620" lon="13.7312670"/>
      <trkpt lat="46.1823560" lon="13.7314780"/>
      <trkpt lat="46.1824210" lon="13.7316240"/>
      <trkpt lat="46.1824540" lon="13.7316990"/>
      <trkpt lat="46.1824830" lon="13.7317760"/>
      <trkpt lat="46.1825570" lon="13.7319690"/>
      <trkpt lat="46.1826090" lon="13.7321200"/>
      <trkpt lat="46.1826670" lon="13.7323790"/>
      <trkpt lat="46.1827580" lon="13.7328510"/>
      <trkpt lat="46.1827870" lon="13.7330270"/>
      <trkpt lat="46.1829080" lon="13.7330050"/>
      <trkpt lat="46.1831860" lon="13.7329410"/>
      <trkpt lat="46.1832630" lon="13.7329210"/>
      <trkpt lat="46.1836670" lon="13.7328140"/>
      <trkpt lat="46.1838990" lon="13.7327370"/>
      <trkpt lat="46.1840780" lon="13.7326710"/>
      <trkpt lat="46.1840910" lon="13.7327480"/>
      <trkpt lat="46.1840980" lon="13.7327890"/>
      <trkpt lat="46.1842120" lon="13.7334060"/>
      <trkpt lat="46.1842340" lon="13.7335310"/>
      <trkpt lat="46.1842570" lon="13.7337080"/>
      <trkpt lat="46.1842810" lon="13.7339400"/>
      <trkpt lat="46.1842870" lon="13.7340700"/>
      <trkpt lat="46.1842880" lon="13.7341110"/>
      <trkpt lat="46.1842900" lon="13.7342630"/>
      <trkpt lat="46.1842940" lon="13.7344970"/>
    </trkseg>
  </trk>
</gpx>