<?xml version="1.0" encoding="UTF-8"?>
<kml xmlns="http://www.opengis.net/kml/2.2">
<Document>
<name>D12a Blue House Ciginj - Tolmin Station</name>
<Placemark>
<name>D12a Blue House Ciginj - Tolmin Station</name>
<LineString><tessellate>1</tessellate><coordinates>13.710793,46.162118,0 13.710706,46.162164,0 13.710699,46.162169,0 13.710628,46.162237,0 13.710601,46.162276,0 13.710194,46.162874,0 13.710046,46.163015,0 13.709991,46.163067,0 13.709939,46.163113,0 13.709892,46.163191,0 13.709871,46.163246,0 13.709867,46.163258,0 13.709887,46.163347,0 13.709992,46.163602,0 13.710012,46.16366,0 13.710111,46.163949,0 13.710159,46.164118,0 13.710152,46.164329,0 13.710134,46.164484,0 13.709864,46.165105,0 13.709588,46.166089,0 13.709591,46.166709,0 13.709551,46.166965,0 13.7095,46.167288,0 13.709431,46.167725,0 13.709194,46.168961,0 13.709138,46.169165,0 13.709061,46.169451,0 13.708872,46.169869,0 13.708468,46.171119,0 13.708384,46.171355,0 13.708339,46.171427,0 13.708091,46.171714,0 13.707998,46.171848,0 13.707891,46.171876,0 13.707856,46.17192,0 13.707833,46.171972,0 13.707817,46.172044,0 13.707814,46.172103,0 13.707796,46.172251,0 13.707808,46.172389,0 13.70783,46.172579,0 13.707897,46.17271,0 13.707945,46.172821,0 13.708035,46.172936,0 13.70808,46.173005,0 13.708023,46.173092,0 13.708002,46.173135,0 13.707972,46.173318,0 13.707938,46.173483,0 13.707895,46.17377,0 13.707883,46.173842,0 13.707859,46.173941,0 13.707841,46.174007,0 13.707758,46.174218,0 13.707695,46.174384,0 13.707655,46.174528,0 13.707645,46.174597,0 13.70763,46.174755,0 13.707645,46.174927,0 13.707679,46.175045,0 13.707703,46.175094,0 13.707725,46.175137,0 13.707801,46.175218,0 13.707888,46.175298,0 13.708174,46.175501,0 13.708339,46.175694,0 13.708454,46.175926,0 13.708509,46.17605,0 13.708571,46.176156,0 13.708672,46.176247,0 13.708983,46.176438,0 13.709089,46.176514,0 13.709188,46.176586,0 13.709482,46.176821,0 13.709658,46.176958,0 13.709774,46.177047,0 13.709807,46.177068,0 13.710445,46.17769,0 13.71066,46.177979,0 13.71095,46.178475,0 13.711148,46.179026,0 13.711387,46.179694,0 13.711986,46.181361,0 13.712037,46.181506,0 13.712438,46.182633,0 13.712519,46.182718,0 13.712554,46.182746,0 13.71257,46.182759,0 13.712602,46.182782,0 13.712664,46.1828,0 13.712715,46.182829,0 13.712752,46.182868,0 13.712769,46.182913,0 13.71282,46.182958,0 13.712913,46.183014,0 13.712977,46.183051,0 13.713066,46.183073,0 13.713175,46.183094,0 13.713249,46.183105,0 13.713482,46.183114,0 13.713694,46.183085,0 13.714069,46.182965,0 13.714691,46.182726,0 13.714978,46.182648,0 13.71525,46.182631,0 13.715501,46.182657,0 13.715798,46.18278,0 13.716778,46.183345,0 13.716907,46.183418,0 13.71711,46.183512,0 13.717302,46.183568,0 13.717491,46.183602,0 13.717676,46.183608,0 13.717853,46.183598,0 13.718023,46.183573,0 13.719129,46.183351,0 13.720414,46.183092,0 13.721217,46.182933,0 13.721716,46.182839,0 13.723535,46.182447,0 13.723789,46.182373,0 13.724014,46.182259,0 13.724451,46.181906,0 13.724862,46.181548,0 13.724983,46.181452,0 13.725111,46.181364,0 13.725216,46.181265,0 13.725276,46.181209,0 13.725326,46.181132,0 13.725343,46.181104,0 13.725368,46.18108,0 13.725402,46.18106,0 13.725421,46.181054,0 13.725452,46.181046,0 13.725485,46.181043,0 13.725518,46.181044,0 13.725549,46.181049,0 13.725661,46.181053,0 13.725796,46.181052,0 13.72593,46.181027,0 13.726065,46.181006,0 13.726175,46.180992,0 13.726447,46.180976,0 13.726729,46.180968,0 13.727143,46.180942,0 13.727151,46.180998,0 13.727178,46.181082,0 13.727205,46.181125,0 13.72724,46.181169,0 13.727315,46.181225,0 13.727403,46.181257,0 13.727528,46.181285,0 13.7278,46.181349,0 13.728042,46.181383,0 13.728098,46.181371,0 13.728136,46.181358,0 13.728177,46.181353,0 13.728219,46.181358,0 13.72826,46.181372,0 13.728293,46.181395,0 13.728312,46.181425,0 13.728339,46.181455,0 13.728436,46.181494,0 13.728604,46.181561,0 13.729419,46.181766,0 13.729661,46.181846,0 13.729778,46.181903,0 13.729939,46.18204,0 13.730009,46.182114,0 13.730035,46.182141,0 13.730084,46.182191,0 13.730123,46.182245,0 13.730145,46.182286,0 13.73016,46.182331,0 13.730161,46.182375,0 13.730159,46.18242,0 13.730137,46.182479,0 13.730109,46.182537,0 13.730038,46.182653,0 13.730011,46.182702,0 13.729998,46.182727,0 13.729991,46.182752,0 13.729994,46.182776,0 13.730005,46.182797,0 13.730021,46.182816,0 13.730042,46.182834,0 13.730066,46.182848,0 13.730094,46.182859,0 13.730122,46.182867,0 13.730153,46.182873,0 13.730183,46.182874,0 13.730212,46.18287,0 13.73024,46.182865,0 13.730267,46.182857,0 13.730294,46.182841,0 13.730314,46.182823,0 13.730333,46.182803,0 13.730348,46.182783,0 13.730365,46.182744,0 13.730374,46.182703,0 13.730384,46.182619,0 13.730396,46.182518,0 13.730403,46.182468,0 13.730415,46.182417,0 13.73043,46.18239,0 13.730449,46.182364,0 13.730469,46.182338,0 13.730493,46.182312,0 13.730571,46.182272,0 13.73066,46.182243,0 13.730766,46.182224,0 13.730819,46.182217,0 13.730874,46.182209,0 13.730931,46.182205,0 13.73099,46.182203,0 13.731103,46.182212,0 13.731188,46.182235,0 13.731267,46.182262,0 13.731478,46.182356,0 13.731624,46.182421,0 13.731699,46.182454,0 13.731776,46.182483,0 13.731969,46.182557,0 13.73212,46.182609,0 13.732379,46.182667,0 13.732851,46.182758,0 13.733027,46.182787,0 13.733005,46.182908,0 13.732941,46.183186,0 13.732921,46.183263,0 13.732814,46.183667,0 13.732737,46.183899,0 13.732671,46.184078,0 13.732748,46.184091,0 13.732789,46.184098,0 13.733406,46.184212,0 13.733531,46.184234,0 13.733708,46.184257,0 13.73394,46.184281,0 13.73407,46.184287,0 13.734111,46.184288,0 13.734263,46.18429,0 13.734497,46.184294,0</coordinates></LineString>
</Placemark>
</Document>
</kml>
